[{"OBJECT_NAME":"SARSAT 7 (NOAA 15)","OBJECT_ID":"1998-030A","EPOCH":"2022-08-18T12:14:49.976160","MEAN_MOTION":14.26162305,"ECCENTRICITY":0.0011493,"INCLINATION":98.6412,"RA_OF_ASC_NODE":259.2249,"ARG_OF_PERICENTER":114.6141,"MEAN_ANOMALY":245.6237,"EPHEMERIS_TYPE":0,"CLASSIFICATION_TYPE":"U","NORAD_CAT_ID":25338,"ELEMENT_SET_NO":999,"REV_AT_EPOCH":26186,"BSTAR":7.288e-5,"MEAN_MOTION_DOT":1.31e-6,"MEAN_MOTION_DDOT":0},{"OBJECT_NAME":"METEOSAT-8 (MSG-1)","OBJECT_ID":"2002-040B","EPOCH":"2022-08-18T03:31:34.595616","MEAN_MOTION":1.00267719,"ECCENTRICITY":0.000158,"INCLINATION":8.1491,"RA_OF_ASC_NODE":50.3132,"ARG_OF_PERICENTER":120.66,"MEAN_ANOMALY":249.8632,"EPHEMERIS_TYPE":0,"CLASSIFICATION_TYPE":"U","NORAD_CAT_ID":27509,"ELEMENT_SET_NO":999,"REV_AT_EPOCH":7323,"BSTAR":0,"MEAN_MOTION_DOT":1.25e-6,"MEAN_MOTION_DDOT":0},{"OBJECT_NAME":"GPS BIIR-08","OBJECT_ID":"2003-005A","EPOCH":"2022-08-18T02:47:04.846848","MEAN_MOTION":2.00561024,"ECCENTRICITY":0.0125489,"INCLINATION":55.4714,"RA_OF_ASC_NODE":270.6117,"ARG_OF_PERICENTER":41.1079,"MEAN_ANOMALY":337.1794,"EPHEMERIS_TYPE":0,"CLASSIFICATION_TYPE":"U","NORAD_CAT_ID":27663,"ELEMENT_SET_NO":999,"REV_AT_EPOCH":14325,"BSTAR":0,"MEAN_MOTION_DOT":1.0e-8,"MEAN_MOTION_DDOT":0},{"OBJECT_NAME":"GPS BIIR-11","OBJECT_ID":"2004-009A","EPOCH":"2022-08-18T10:16:10.274880","MEAN_MOTION":2.00559213,"ECCENTRICITY":0.0090216,"INCLINATION":55.965,"RA_OF_ASC_NODE":331.5989,"ARG_OF_PERICENTER":124.0281,"MEAN_ANOMALY":274.3109,"EPHEMERIS_TYPE":0,"CLASSIFICATION_TYPE":"U","NORAD_CAT_ID":28190,"ELEMENT_SET_NO":999,"REV_AT_EPOCH":13489,"BSTAR":0,"MEAN_MOTION_DOT":-1.06e-6,"MEAN_MOTION_DDOT":0},{"OBJECT_NAME":"GPS BIIR-13","OBJECT_ID":"2004-045A","EPOCH":"2022-08-17T23:26:16.507680","MEAN_MOTION":2.00422958,"ECCENTRICITY":0.0201644,"INCLINATION":55.373,"RA_OF_ASC_NODE":20.9788,"ARG_OF_PERICENTER":279.6695,"MEAN_ANOMALY":46.0844,"EPHEMERIS_TYPE":0,"CLASSIFICATION_TYPE":"U","NORAD_CAT_ID":28474,"ELEMENT_SET_NO":999,"REV_AT_EPOCH":13036,"BSTAR":0,"MEAN_MOTION_DOT":-9.4e-7,"MEAN_MOTION_DDOT":0},{"OBJECT_NAME":"SARSAT 10 (NOAA 18)","OBJECT_ID":"2005-018A","EPOCH":"2022-08-18T11:01:59.340576","MEAN_MOTION":14.12765546,"ECCENTRICITY":0.0014885,"INCLINATION":98.9456,"RA_OF_ASC_NODE":300.8372,"ARG_OF_PERICENTER":152.9624,"MEAN_ANOMALY":207.2326,"EPHEMERIS_TYPE":0,"CLASSIFICATION_TYPE":"U","NORAD_CAT_ID":28654,"ELEMENT_SET_NO":999,"REV_AT_EPOCH":88873,"BSTAR":9.5264e-5,"MEAN_MOTION_DOT":1.32e-6,"MEAN_MOTION_DDOT":0},{"OBJECT_NAME":"GPS BIIR-14M","OBJECT_ID":"2005-038A","EPOCH":"2022-08-18T10:13:19.823232","MEAN_MOTION":2.00572573,"ECCENTRICITY":0.0138731,"INCLINATION":56.0285,"RA_OF_ASC_NODE":329.0361,"ARG_OF_PERICENTER":274.7228,"MEAN_ANOMALY":147.5254,"EPHEMERIS_TYPE":0,"CLASSIFICATION_TYPE":"U","NORAD_CAT_ID":28874,"ELEMENT_SET_NO":999,"REV_AT_EPOCH":12378,"BSTAR":0,"MEAN_MOTION_DOT":-1.04e-6,"MEAN_MOTION_DDOT":0},{"OBJECT_NAME":"METEOSAT-9 (MSG-2)","OBJECT_ID":"2005-049B","EPOCH":"2022-08-18T05:16:10.509312","MEAN_MOTION":1.00266918,"ECCENTRICITY":7.79e-5,"INCLINATION":6.1549,"RA_OF_ASC_NODE":65.9002,"ARG_OF_PERICENTER":191.3029,"MEAN_ANOMALY":194.1379,"EPHEMERIS_TYPE":0,"CLASSIFICATION_TYPE":"U","NORAD_CAT_ID":28912,"ELEMENT_SET_NO":999,"REV_AT_EPOCH":6101,"BSTAR":0,"MEAN_MOTION_DOT":1.18e-6,"MEAN_MOTION_DDOT":0},{"OBJECT_NAME":"GOES 13","OBJECT_ID":"2006-018A","EPOCH":"2022-08-18T12:14:02.140800","MEAN_MOTION":1.00274991,"ECCENTRICITY":0.0005663,"INCLINATION":0.7459,"RA_OF_ASC_NODE":96.5028,"ARG_OF_PERICENTER":101.2029,"MEAN_ANOMALY":14.0176,"EPHEMERIS_TYPE":0,"CLASSIFICATION_TYPE":"U","NORAD_CAT_ID":29155,"ELEMENT_SET_NO":999,"REV_AT_EPOCH":2935,"BSTAR":0,"MEAN_MOTION_DOT":2.9e-7,"MEAN_MOTION_DDOT":0},{"OBJECT_NAME":"GPS BIIR-16M","OBJECT_ID":"2006-052A","EPOCH":"2022-08-18T09:38:59.251488","MEAN_MOTION":2.00554527,"ECCENTRICITY":0.0082647,"INCLINATION":55.4799,"RA_OF_ASC_NODE":269.5408,"ARG_OF_PERICENTER":74.9895,"MEAN_ANOMALY":285.9842,"EPHEMERIS_TYPE":0,"CLASSIFICATION_TYPE":"U","NORAD_CAT_ID":29601,"ELEMENT_SET_NO":999,"REV_AT_EPOCH":11535,"BSTAR":0,"MEAN_MOTION_DOT":6.0e-8,"MEAN_MOTION_DDOT":0},{"OBJECT_NAME":"GPS BIIR-17M","OBJECT_ID":"2007-047A","EPOCH":"2022-08-18T05:07:09.624576","MEAN_MOTION":2.00571291,"ECCENTRICITY":0.0142185,"INCLINATION":53.3285,"RA_OF_ASC_NODE":137.9849,"ARG_OF_PERICENTER":63.7645,"MEAN_ANOMALY":297.7207,"EPHEMERIS_TYPE":0,"CLASSIFICATION_TYPE":"U","NORAD_CAT_ID":32260,"ELEMENT_SET_NO":999,"REV_AT_EPOCH":10875,"BSTAR":0,"MEAN_MOTION_DOT":-3.0e-7,"MEAN_MOTION_DDOT":0},{"OBJECT_NAME":"GPS BIIR-18M","OBJECT_ID":"2007-062A","EPOCH":"2022-08-18T12:50:47.145696","MEAN_MOTION":2.00565724,"ECCENTRICITY":0.0021078,"INCLINATION":56.1493,"RA_OF_ASC_NODE":329.801,"ARG_OF_PERICENTER":142.9278,"MEAN_ANOMALY":218.4018,"EPHEMERIS_TYPE":0,"CLASSIFICATION_TYPE":"U","NORAD_CAT_ID":32384,"ELEMENT_SET_NO":999,"REV_AT_EPOCH":10746,"BSTAR":0,"MEAN_MOTION_DOT":-1.04e-6,"MEAN_MOTION_DDOT":0},{"OBJECT_NAME":"SARSAT 12 (NOAA 19)","OBJECT_ID":"2009-005A","EPOCH":"2022-08-18T12:55:56.311680","MEAN_MOTION":14.12599767,"ECCENTRICITY":0.001412,"INCLINATION":99.1443,"RA_OF_ASC_NODE":265.9682,"ARG_OF_PERICENTER":18.0986,"MEAN_ANOMALY":342.0685,"EPHEMERIS_TYPE":0,"CLASSIFICATION_TYPE":"U","NORAD_CAT_ID":33591,"ELEMENT_SET_NO":999,"REV_AT_EPOCH":69695,"BSTAR":9.1496e-5,"MEAN_MOTION_DOT":1.23e-6,"MEAN_MOTION_DDOT":0},{"OBJECT_NAME":"GOES 14","OBJECT_ID":"2009-033A","EPOCH":"2022-08-18T12:15:42.547104","MEAN_MOTION":1.00272514,"ECCENTRICITY":0.001486,"INCLINATION":0.4604,"RA_OF_ASC_NODE":94.3423,"ARG_OF_PERICENTER":118.4659,"MEAN_ANOMALY":193.4126,"EPHEMERIS_TYPE":0,"CLASSIFICATION_TYPE":"U","NORAD_CAT_ID":35491,"ELEMENT_SET_NO":999,"REV_AT_EPOCH":4808,"BSTAR":0,"MEAN_MOTION_DOT":-9.9e-7,"MEAN_MOTION_DDOT":0},{"OBJECT_NAME":"GOES 15","OBJECT_ID":"2010-008A","EPOCH":"2022-08-18T10:47:19.334976","MEAN_MOTION":1.00273197,"ECCENTRICITY":0.0004691,"INCLINATION":0.4271,"RA_OF_ASC_NODE":276.2557,"ARG_OF_PERICENTER":246.9333,"MEAN_ANOMALY":197.3507,"EPHEMERIS_TYPE":0,"CLASSIFICATION_TYPE":"U","NORAD_CAT_ID":36411,"ELEMENT_SET_NO":999,"REV_AT_EPOCH":4564,"BSTAR":0,"MEAN_MOTION_DOT":4.7e-7,"MEAN_MOTION_DDOT":0},{"OBJECT_NAME":"GPS BIIF-2","OBJECT_ID":"2011-036A","EPOCH":"2022-08-18T07:29:45.389760","MEAN_MOTION":2.00565821,"ECCENTRICITY":0.0118505,"INCLINATION":56.6341,"RA_OF_ASC_NODE":26.2974,"ARG_OF_PERICENTER":53.211,"MEAN_ANOMALY":296.9295,"EPHEMERIS_TYPE":0,"CLASSIFICATION_TYPE":"U","NORAD_CAT_ID":37753,"ELEMENT_SET_NO":999,"REV_AT_EPOCH":8121,"BSTAR":0,"MEAN_MOTION_DOT":-8.6e-7,"MEAN_MOTION_DDOT":0},{"OBJECT_NAME":"GSAT0101 (GALILEO-PFM)","OBJECT_ID":"2011-060A","EPOCH":"2022-08-17T20:14:16.343808","MEAN_MOTION":1.70475088,"ECCENTRICITY":0.0002621,"INCLINATION":57.0198,"RA_OF_ASC_NODE":19.6692,"ARG_OF_PERICENTER":67.7753,"MEAN_ANOMALY":292.2538,"EPHEMERIS_TYPE":0,"CLASSIFICATION_TYPE":"U","NORAD_CAT_ID":37846,"ELEMENT_SET_NO":999,"REV_AT_EPOCH":6726,"BSTAR":0,"MEAN_MOTION_DOT":-9.2e-7,"MEAN_MOTION_DDOT":0}]