NOAA 15                 
1 25338U 98030A   22230.51030065  .00000131  00000+0  72880-4 0  9993
2 25338  98.6412 259.2249 0011493 114.6141 245.6237 14.26162305261864
METEOSAT-8 (MSG-1)      
1 27509U 02040B   22230.14692819  .00000125  00000+0  00000+0 0  9994
2 27509   8.1491  50.3132 0001580 120.6600 249.8632  1.00267719 73233
NAVSTAR 51 (USA 166)    
1 27663U 03005A   22230.11602832  .00000001  00000+0  00000+0 0  9993
2 27663  55.4714 270.6117 0125489  41.1079 337.1794  2.00561024143256
NAVSTAR 54 (USA 177)    
1 28190U 04009A   22230.42789670 -.00000106  00000+0  00000+0 0  9991
2 28190  55.9650 331.5989 0090216 124.0281 274.3109  2.00559213134894
NAVSTAR 56 (USA 180)    
1 28474U 04045A   22229.97657995 -.00000094  00000+0  00000+0 0  9994
2 28474  55.3730  20.9788 0201644 279.6695  46.0844  2.00422958130366
NOAA 18                 
1 28654U 05018A   22230.45971459  .00000132  00000+0  95264-4 0  9997
2 28654  98.9456 300.8372 0014885 152.9624 207.2326 14.12765546888733
NAVSTAR 57 (USA 183)    
1 28874U 05038A   22230.42592388 -.00000104  00000+0  00000+0 0  9999
2 28874  56.0285 329.0361 0138731 274.7228 147.5254  2.00572573123786
METEOSAT-9 (MSG-2)      
1 28912U 05049B   22230.21956608  .00000118  00000+0  00000+0 0  9994
2 28912   6.1549  65.9002 0000779 191.3029 194.1379  1.00266918 61014
EWS-G1 (GOES 13)        
1 29155U 06018A   22230.50974700  .00000029  00000+0  00000+0 0  9997
2 29155   0.7459  96.5028 0005663 101.2029  14.0176  1.00274991 29355
NAVSTAR 59 (USA 192)    
1 29601U 06052A   22230.40207467  .00000006  00000+0  00000+0 0  9994
2 29601  55.4799 269.5408 0082647  74.9895 285.9842  2.00554527115355
NAVSTAR 60 (USA 196)    
1 32260U 07047A   22230.21330584 -.00000030  00000+0  00000+0 0  9998
2 32260  53.3285 137.9849 0142185  63.7645 297.7207  2.00571291108756
NAVSTAR 61 (USA 199)    
1 32384U 07062A   22230.53526789 -.00000104  00000+0  00000+0 0  9993
2 32384  56.1493 329.8010 0021078 142.9278 218.4018  2.00565724107467
NOAA 19                 
1 33591U 09005A   22230.53884620  .00000123  00000+0  91496-4 0  9998
2 33591  99.1443 265.9682 0014120  18.0986 342.0685 14.12599767696955
GOES 14                 
1 35491U 09033A   22230.51090911 -.00000099  00000+0  00000+0 0  9999
2 35491   0.4604  94.3423 0014860 118.4659 193.4126  1.00272514 48084
GOES 15                 
1 36411U 10008A   22230.44952934  .00000047  00000+0  00000+0 0  9992
2 36411   0.4271 276.2557 0004691 246.9333 197.3507  1.00273197 45646
NAVSTAR 66 (USA 232)    
1 37753U 11036A   22230.31233090 -.00000086  00000+0  00000+0 0  9999
2 37753  56.6341  26.2974 0118505  53.2110 296.9295  2.00565821 81217
GSAT0101 (GALILEO-PFM)  
1 37846U 11060A   22229.84324472 -.00000092  00000+0  00000+0 0  9997
2 37846  57.0198  19.6692 0002621  67.7753 292.2538  1.70475088 67261
